[{"OBJECT_NAME":"STARLINK-36227","OBJECT_ID":"2025-298W","EPOCH":"2026-03-09T22:24:17.887968","MEAN_MOTION":14.99130266,"ECCENTRICITY":0.00025619,"INCLINATION":70.0021,"RA_OF_ASC_NODE":13.8485,"ARG_OF_PERICENTER":273.927,"MEAN_ANOMALY":86.1597,"EPHEMERIS_TYPE":0,"CLASSIFICATION_TYPE":"U","NORAD_CAT_ID":67095,"ELEMENT_SET_NO":999,"REV_AT_EPOCH":1325,"BSTAR":-1.7246e-5,"MEAN_MOTION_DOT":-3.04e-6,"MEAN_MOTION_DDOT":0},{"OBJECT_NAME":"COSMOS 44","OBJECT_ID":"1964-053A","EPOCH":"2026-03-09T21:59:01.891968","MEAN_MOTION":14.65674855,"ECCENTRICITY":0.01500487,"INCLINATION":65.0577,"RA_OF_ASC_NODE":259.0656,"ARG_OF_PERICENTER":297.9455,"MEAN_ANOMALY":60.6525,"EPHEMERIS_TYPE":0,"CLASSIFICATION_TYPE":"U","NORAD_CAT_ID":876,"ELEMENT_SET_NO":999,"REV_AT_EPOCH":27412,"BSTAR":5.8309856e-5,"MEAN_MOTION_DOT":2.3e-6,"MEAN_MOTION_DDOT":0}]
